{"type": "FeatureCollection", "features": [{"type": "Feature", "properties": {"norad_id": 24876, "name": "GPS BIIR-2  (PRN 13)", "group": "gnss", "lat": -35.058935631840676, "lon": 77.36267218246272, "alt_km": 20232.455234307636, "timestamp": "2025-12-16T03:53:27.296851+00:00", "meta": {"OBJECT_NAME": "GPS BIIR-2  (PRN 13)", "OBJECT_ID": "1997-035A", "EPOCH": "2025-12-14T17:26:52.239264", "MEAN_MOTION": 2.00563675, "ECCENTRICITY": 0.0096779, "INCLINATION": 55.8962, "RA_OF_ASC_NODE": 105.7911, "ARG_OF_PERICENTER": 56.9919, "MEAN_ANOMALY": 303.9085, "EPHEMERIS_TYPE": 0, "CLASSIFICATION_TYPE": "U", "NORAD_CAT_ID": 24876, "ELEMENT_SET_NO": 999, "REV_AT_EPOCH": 20825, "BSTAR": 0, "MEAN_MOTION_DOT": -1e-07, "MEAN_MOTION_DDOT": 0}, "tle": {"line1": "1 24876U 97035A   25348.72699351 -.00000010  00000+0  00000+0 0  9995", "line2": "2 24876  55.8962 105.7911 0096779  56.9919 303.9085  2.00563675208254"}}, "geometry": {"type": "Point", "coordinates": [77.36267218246272, -35.058935631840676]}}, {"type": "Feature", "properties": {"norad_id": 26360, "name": "GPS BIIR-4  (PRN 20)", "group": "gnss", "lat": 38.33281694865591, "lon": 60.269905953352804, "alt_km": 20278.002975696905, "timestamp": "2025-12-16T03:53:27.296896+00:00", "meta": {"OBJECT_NAME": "GPS BIIR-4  (PRN 20)", "OBJECT_ID": "2000-025A", "EPOCH": "2025-12-15T02:36:21.571200", "MEAN_MOTION": 2.00567593, "ECCENTRICITY": 0.00388813, "INCLINATION": 55.0466, "RA_OF_ASC_NODE": 26.742, "ARG_OF_PERICENTER": 242.2242, "MEAN_ANOMALY": 126.1777, "EPHEMERIS_TYPE": 0, "CLASSIFICATION_TYPE": "U", "NORAD_CAT_ID": 26360, "ELEMENT_SET_NO": 999, "REV_AT_EPOCH": 18758, "BSTAR": 0, "MEAN_MOTION_DOT": -9.2e-07, "MEAN_MOTION_DDOT": 0}, "tle": {"line1": "1 26360U 00025A   25349.10858300 -.00000092  00000+0  00000+0 0  9992", "line2": "2 26360  55.0466  26.7420 0038881 242.2242 126.1777  2.00567593187589"}}, "geometry": {"type": "Point", "coordinates": [60.269905953352804, 38.33281694865591]}}, {"type": "Feature", "properties": {"norad_id": 26407, "name": "GPS BIIR-5  (PRN 22)", "group": "gnss", "lat": -49.11170833019722, "lon": 96.72185844340507, "alt_km": 19990.212916864613, "timestamp": "2025-12-16T03:53:27.296915+00:00", "meta": {"OBJECT_NAME": "GPS BIIR-5  (PRN 22)", "OBJECT_ID": "2000-040A", "EPOCH": "2025-12-14T13:17:49.888896", "MEAN_MOTION": 2.00568039, "ECCENTRICITY": 0.01259105, "INCLINATION": 54.8904, "RA_OF_ASC_NODE": 222.4968, "ARG_OF_PERICENTER": 301.8439, "MEAN_ANOMALY": 225.766, "EPHEMERIS_TYPE": 0, "CLASSIFICATION_TYPE": "U", "NORAD_CAT_ID": 26407, "ELEMENT_SET_NO": 999, "REV_AT_EPOCH": 18624, "BSTAR": 0, "MEAN_MOTION_DOT": 3.9e-07, "MEAN_MOTION_DDOT": 0}, "tle": {"line1": "1 26407U 00040A   25348.55404964  .00000039  00000+0  00000+0 0  9992", "line2": "2 26407  54.8904 222.4968 0125910 301.8439 225.7660  2.00568039186242"}}, "geometry": {"type": "Point", "coordinates": [96.72185844340507, -49.11170833019722]}}, {"type": "Feature", "properties": {"norad_id": 27663, "name": "GPS BIIR-8  (PRN 16)", "group": "gnss", "lat": 19.280140718348378, "lon": -123.53114283979635, "alt_km": 19831.70568391997, "timestamp": "2025-12-16T03:53:27.296930+00:00", "meta": {"OBJECT_NAME": "GPS BIIR-8  (PRN 16)", "OBJECT_ID": "2003-005A", "EPOCH": "2025-12-14T15:32:18.245760", "MEAN_MOTION": 2.00570858, "ECCENTRICITY": 0.01475389, "INCLINATION": 54.9229, "RA_OF_ASC_NODE": 222.3024, "ARG_OF_PERICENTER": 51.8264, "MEAN_ANOMALY": 319.116, "EPHEMERIS_TYPE": 0, "CLASSIFICATION_TYPE": "U", "NORAD_CAT_ID": 27663, "ELEMENT_SET_NO": 999, "REV_AT_EPOCH": 16761, "BSTAR": 0, "MEAN_MOTION_DOT": 4.1e-07, "MEAN_MOTION_DDOT": 0}, "tle": {"line1": "1 27663U 03005A   25348.64743340  .00000041  00000+0  00000+0 0  9998", "line2": "2 27663  54.9229 222.3024 0147538  51.8264 319.1160  2.00570858167613"}}, "geometry": {"type": "Point", "coordinates": [-123.53114283979635, 19.280140718348378]}}, {"type": "Feature", "properties": {"norad_id": 28190, "name": "GPS BIIR-11 (PRN 19)", "group": "gnss", "lat": -2.993165285923359, "lon": 105.16079272592569, "alt_km": 19905.8937595232, "timestamp": "2025-12-16T03:53:27.296943+00:00", "meta": {"OBJECT_NAME": "GPS BIIR-11 (PRN 19)", "OBJECT_ID": "2004-009A", "EPOCH": "2025-12-14T15:49:47.343936", "MEAN_MOTION": 2.00560762, "ECCENTRICITY": 0.01083648, "INCLINATION": 54.9839, "RA_OF_ASC_NODE": 283.1415, "ARG_OF_PERICENTER": 167.6892, "MEAN_ANOMALY": 10.6801, "EPHEMERIS_TYPE": 0, "CLASSIFICATION_TYPE": "U", "NORAD_CAT_ID": 28190, "ELEMENT_SET_NO": 999, "REV_AT_EPOCH": 15924, "BSTAR": 0, "MEAN_MOTION_DOT": -7.9e-07, "MEAN_MOTION_DDOT": 0}, "tle": {"line1": "1 28190U 04009A   25348.65957574 -.00000079  00000+0  00000+0 0  9998", "line2": "2 28190  54.9839 283.1415 0108364 167.6892  10.6801  2.00560762159240"}}, "geometry": {"type": "Point", "coordinates": [105.16079272592569, -2.993165285923359]}}, {"type": "Feature", "properties": {"norad_id": 28474, "name": "GPS BIIR-13 (PRN 02)", "group": "gnss", "lat": -46.324957901352356, "lon": -161.08609923932596, "alt_km": 20007.127756581933, "timestamp": "2025-12-16T03:53:27.296956+00:00", "meta": {"OBJECT_NAME": "GPS BIIR-13 (PRN 02)", "OBJECT_ID": "2004-045A", "EPOCH": "2025-12-15T08:55:34.317408", "MEAN_MOTION": 2.00569721, "ECCENTRICITY": 0.01708177, "INCLINATION": 55.2393, "RA_OF_ASC_NODE": 332.2998, "ARG_OF_PERICENTER": 309.3676, "MEAN_ANOMALY": 83.5283, "EPHEMERIS_TYPE": 0, "CLASSIFICATION_TYPE": "U", "NORAD_CAT_ID": 28474, "ELEMENT_SET_NO": 999, "REV_AT_EPOCH": 15474, "BSTAR": 0, "MEAN_MOTION_DOT": -9.1e-07, "MEAN_MOTION_DDOT": 0}, "tle": {"line1": "1 28474U 04045A   25349.37192497 -.00000091  00000+0  00000+0 0  9992", "line2": "2 28474  55.2393 332.2998 0170817 309.3676  83.5283  2.00569721154740"}}, "geometry": {"type": "Point", "coordinates": [-161.08609923932596, -46.324957901352356]}}, {"type": "Feature", "properties": {"norad_id": 28874, "name": "GPS BIIRM-1 (PRN 17)", "group": "gnss", "lat": -17.090566511966436, "lon": 112.95548384534918, "alt_km": 20195.231013547134, "timestamp": "2025-12-16T03:53:27.296970+00:00", "meta": {"OBJECT_NAME": "GPS BIIRM-1 (PRN 17)", "OBJECT_ID": "2005-038A", "EPOCH": "2025-12-14T21:27:36.248256", "MEAN_MOTION": 2.00578318, "ECCENTRICITY": 0.01315823, "INCLINATION": 55.03, "RA_OF_ASC_NODE": 280.6141, "ARG_OF_PERICENTER": 293.5769, "MEAN_ANOMALY": 73.3073, "EPHEMERIS_TYPE": 0, "CLASSIFICATION_TYPE": "U", "NORAD_CAT_ID": 28874, "ELEMENT_SET_NO": 999, "REV_AT_EPOCH": 14814, "BSTAR": 0, "MEAN_MOTION_DOT": -7.5e-07, "MEAN_MOTION_DDOT": 0}, "tle": {"line1": "1 28874U 05038A   25348.89416954 -.00000075  00000+0  00000+0 0  9994", "line2": "2 28874  55.0300 280.6141 0131582 293.5769  73.3073  2.00578318148142"}}, "geometry": {"type": "Point", "coordinates": [112.95548384534918, -17.090566511966436]}}, {"type": "Feature", "properties": {"norad_id": 28899, "name": "INMARSAT 4-F2 (SOUTHPAN/PRN 122)", "group": "gnss", "lat": -4.353710240524796, "lon": -73.15625898517473, "alt_km": 35776.21749370859, "timestamp": "2025-12-16T03:53:27.296984+00:00", "meta": {"OBJECT_NAME": "INMARSAT 4-F2 (SOUTHPAN/PRN 122)", "OBJECT_ID": "2005-044A", "EPOCH": "2025-12-15T07:11:51.608832", "MEAN_MOTION": 1.00271463, "ECCENTRICITY": 0.00026564, "INCLINATION": 4.856, "RA_OF_ASC_NODE": 43.6985, "ARG_OF_PERICENTER": 223.8404, "MEAN_ANOMALY": 68.1363, "EPHEMERIS_TYPE": 0, "CLASSIFICATION_TYPE": "U", "NORAD_CAT_ID": 28899, "ELEMENT_SET_NO": 999, "REV_AT_EPOCH": 7367, "BSTAR": 0, "MEAN_MOTION_DOT": -2.43e-06, "MEAN_MOTION_DDOT": 0}, "tle": {"line1": "1 28899U 05044A   25349.29990288 -.00000243  00000+0  00000+0 0  9997", "line2": "2 28899   4.8560  43.6985 0002656 223.8404  68.1363  1.00271463 73672"}}, "geometry": {"type": "Point", "coordinates": [-73.15625898517473, -4.353710240524796]}}, {"type": "Feature", "properties": {"norad_id": 29486, "name": "GPS BIIRM-2 (PRN 31)", "group": "gnss", "lat": 51.523540365841036, "lon": -84.53336200736227, "alt_km": 20008.459300596234, "timestamp": "2025-12-16T03:53:27.296998+00:00", "meta": {"OBJECT_NAME": "GPS BIIRM-2 (PRN 31)", "OBJECT_ID": "2006-042A", "EPOCH": "2025-12-15T05:33:13.829184", "MEAN_MOTION": 2.00554094, "ECCENTRICITY": 0.01073367, "INCLINATION": 54.6944, "RA_OF_ASC_NODE": 158.6418, "ARG_OF_PERICENTER": 52.0177, "MEAN_ANOMALY": 101.3076, "EPHEMERIS_TYPE": 0, "CLASSIFICATION_TYPE": "U", "NORAD_CAT_ID": 29486, "ELEMENT_SET_NO": 999, "REV_AT_EPOCH": 14070, "BSTAR": 0, "MEAN_MOTION_DOT": 9.8e-07, "MEAN_MOTION_DDOT": 0}, "tle": {"line1": "1 29486U 06042A   25349.23141006  .00000098  00000+0  00000+0 0  9996", "line2": "2 29486  54.6944 158.6418 0107336  52.0177 101.3076  2.00554094140707"}}, "geometry": {"type": "Point", "coordinates": [-84.53336200736227, 51.523540365841036]}}, {"type": "Feature", "properties": {"norad_id": 29601, "name": "GPS BIIRM-3 (PRN 12)", "group": "gnss", "lat": 12.921379587232652, "lon": 32.01716198090937, "alt_km": 20124.333288050708, "timestamp": "2025-12-16T03:53:27.297011+00:00", "meta": {"OBJECT_NAME": "GPS BIIRM-3 (PRN 12)", "OBJECT_ID": "2006-052A", "EPOCH": "2025-12-11T22:46:47.068032", "MEAN_MOTION": 2.00573524, "ECCENTRICITY": 0.00877389, "INCLINATION": 54.9707, "RA_OF_ASC_NODE": 221.4296, "ARG_OF_PERICENTER": 87.4221, "MEAN_ANOMALY": 273.6564, "EPHEMERIS_TYPE": 0, "CLASSIFICATION_TYPE": "U", "NORAD_CAT_ID": 29601, "ELEMENT_SET_NO": 999, "REV_AT_EPOCH": 13965, "BSTAR": 0, "MEAN_MOTION_DOT": 9e-08, "MEAN_MOTION_DDOT": 0}, "tle": {"line1": "1 29601U 06052A   25345.94915588  .00000009  00000+0  00000+0 0  9996", "line2": "2 29601  54.9707 221.4296 0087738  87.4221 273.6564  2.00573524139650"}}, "geometry": {"type": "Point", "coordinates": [32.01716198090937, 12.921379587232652]}}]}